{"type": "FeatureCollection", "features": [ {"type": "Feature", "properties": {"norad_id": 34875, "name": "COSMOS 2251 DEB", "group": "cosmos-2251-debris", "lat": -66.63671497037772, "lon": 11.008756881606216, "alt_km": 725.1805071435319, "timestamp": "2025-12-17T09:00:17.543210+00:00", "meta": {"OBJECT_NAME": "COSMOS 2251 DEB", "OBJECT_ID": "1993-036ACN", "EPOCH": "2025-12-16T12:13:08.102784", "MEAN_MOTION": 14.48939196, "ECCENTRICITY": 0.00161986, "INCLINATION": 74.0432, "RA_OF_ASC_NODE": 151.1523, "ARG_OF_PERICENTER": 274.5827, "MEAN_ANOMALY": 142.3573, "EPHEMERIS_TYPE": 0, "CLASSIFICATION_TYPE": "U", "NORAD_CAT_ID": 34875, "ELEMENT_SET_NO": 999, "REV_AT_EPOCH": 87810, "BSTAR": 0.00037730944, "MEAN_MOTION_DOT": 1.404e-05, "MEAN_MOTION_DDOT": 0}, "tle": {"line1": "1 34875U 93036ACN 25350.50912156  .00001404  00000+0  37731-3 0  9994", "line2": "2 34875  74.0432 151.1523 0016198 274.5827 142.3573 14.48939196878100"}}, "geometry": {"type": "Point", "coordinates": [11.008756881606216, -66.63671497037772]}}, {"type": "Feature", "properties": {"norad_id": 34878, "name": "COSMOS 2251 DEB", "group": "cosmos-2251-debris", "lat": 70.68068767450266, "lon": 95.08633163883309, "alt_km": 897.3602088424714, "timestamp": "2025-12-17T09:00:17.543220+00:00", "meta": {"OBJECT_NAME": "COSMOS 2251 DEB", "OBJECT_ID": "1993-036ACR", "EPOCH": "2025-12-15T21:48:13.370976", "MEAN_MOTION": 13.44195012, "ECCENTRICITY": 0.04354662, "INCLINATION": 73.9648, "RA_OF_ASC_NODE": 42.2959, "ARG_OF_PERICENTER": 25.2, "MEAN_ANOMALY": 154.8462, "EPHEMERIS_TYPE": 0, "CLASSIFICATION_TYPE": "U", "NORAD_CAT_ID": 34878, "ELEMENT_SET_NO": 999, "REV_AT_EPOCH": 81315, "BSTAR": 0.00059672813, "MEAN_MOTION_DOT": 5.92e-06, "MEAN_MOTION_DDOT": 0}, "tle": {"line1": "1 34878U 93036ACR 25349.90848809  .00000592  00000+0  59673-3 0  9998", "line2": "2 34878  73.9648  42.2959 0435466  25.2000 154.8462 13.44195012813155"}}, "geometry": {"type": "Point", "coordinates": [95.08633163883309, 70.68068767450266]}}, {"type": "Feature", "properties": {"norad_id": 34882, "name": "COSMOS 2251 DEB", "group": "cosmos-2251-debris", "lat": 45.59156793839783, "lon": -126.29043948640562, "alt_km": 658.9819082627764, "timestamp": "2025-12-17T09:00:17.543231+00:00", "meta": {"OBJECT_NAME": "COSMOS 2251 DEB", "OBJECT_ID": "1993-036ACV", "EPOCH": "2025-12-16T08:08:53.829024", "MEAN_MOTION": 14.61604342, "ECCENTRICITY": 0.00829872, "INCLINATION": 74.0464, "RA_OF_ASC_NODE": 218.7097, "ARG_OF_PERICENTER": 344.8064, "MEAN_ANOMALY": 15.061, "EPHEMERIS_TYPE": 0, "CLASSIFICATION_TYPE": "U", "NORAD_CAT_ID": 34882, "ELEMENT_SET_NO": 999, "REV_AT_EPOCH": 88577, "BSTAR": 0.00014326394, "MEAN_MOTION_DOT": 7.15e-06, "MEAN_MOTION_DDOT": 0}, "tle": {"line1": "1 34882U 93036ACV 25350.33951191  .00000715  00000+0  14326-3 0  9994", "line2": "2 34882  74.0464 218.7097 0082987 344.8064  15.0610 14.61604342885778"}}, "geometry": {"type": "Point", "coordinates": [-126.29043948640562, 45.59156793839783]}}, {"type": "Feature", "properties": {"norad_id": 34883, "name": "COSMOS 2251 DEB", "group": "cosmos-2251-debris", "lat": -66.02774719333888, "lon": 14.512919724941536, "alt_km": 683.3432981171927, "timestamp": "2025-12-17T09:00:17.543241+00:00", "meta": {"OBJECT_NAME": "COSMOS 2251 DEB", "OBJECT_ID": "1993-036ACW", "EPOCH": "2025-12-16T03:33:44.508384", "MEAN_MOTION": 14.51615138, "ECCENTRICITY": 0.00951919, "INCLINATION": 74.1965, "RA_OF_ASC_NODE": 56.3649, "ARG_OF_PERICENTER": 240.9605, "MEAN_ANOMALY": 118.1996, "EPHEMERIS_TYPE": 0, "CLASSIFICATION_TYPE": "U", "NORAD_CAT_ID": 34883, "ELEMENT_SET_NO": 999, "REV_AT_EPOCH": 86489, "BSTAR": 0.0030222545, "MEAN_MOTION_DOT": 0.00012841, "MEAN_MOTION_DDOT": 0}, "tle": {"line1": "1 34883U 93036ACW 25350.14843181  .00012841  00000+0  30223-2 0  9999", "line2": "2 34883  74.1965  56.3649 0095191 240.9605 118.1996 14.51615138864899"}}, "geometry": {"type": "Point", "coordinates": [14.512919724941536, -66.02774719333888]}}, {"type": "Feature", "properties": {"norad_id": 34884, "name": "COSMOS 2251 DEB", "group": "cosmos-2251-debris", "lat": 33.26390387918605, "lon": -143.38175254836486, "alt_km": 594.549783978805, "timestamp": "2025-12-17T09:00:17.543251+00:00", "meta": {"OBJECT_NAME": "COSMOS 2251 DEB", "OBJECT_ID": "1993-036ACX", "EPOCH": "2025-12-16T15:11:40.083648", "MEAN_MOTION": 14.90250753, "ECCENTRICITY": 0.00024945, "INCLINATION": 74.0179, "RA_OF_ASC_NODE": 48.941, "ARG_OF_PERICENTER": 61.7078, "MEAN_ANOMALY": 63.7323, "EPHEMERIS_TYPE": 0, "CLASSIFICATION_TYPE": "U", "NORAD_CAT_ID": 34884, "ELEMENT_SET_NO": 999, "REV_AT_EPOCH": 87863, "BSTAR": 0.0017646112, "MEAN_MOTION_DOT": 0.00017134, "MEAN_MOTION_DDOT": 0}, "tle": {"line1": "1 34884U 93036ACX 25350.63310282  .00017134  00000+0  17646-2 0  9999", "line2": "2 34884  74.0179  48.9410 0002494  61.7078  63.7323 14.90250753878633"}}, "geometry": {"type": "Point", "coordinates": [-143.38175254836486, 33.26390387918605]}}, {"type": "Feature", "properties": {"norad_id": 34885, "name": "COSMOS 2251 DEB", "group": "cosmos-2251-debris", "lat": 67.34322260971886, "lon": -49.02378155026826, "alt_km": 723.343630632974, "timestamp": "2025-12-17T09:00:17.543261+00:00", "meta": {"OBJECT_NAME": "COSMOS 2251 DEB", "OBJECT_ID": "1993-036ACY", "EPOCH": "2025-12-16T23:07:54.744384", "MEAN_MOTION": 14.51524925, "ECCENTRICITY": 0.00151145, "INCLINATION": 74.0298, "RA_OF_ASC_NODE": 175.0683, "ARG_OF_PERICENTER": 260.487, "MEAN_ANOMALY": 217.0768, "EPHEMERIS_TYPE": 0, "CLASSIFICATION_TYPE": "U", "NORAD_CAT_ID": 34885, "ELEMENT_SET_NO": 999, "REV_AT_EPOCH": 87540, "BSTAR": 0.00052941132, "MEAN_MOTION_DOT": 2.093e-05, "MEAN_MOTION_DDOT": 0}, "tle": {"line1": "1 34885U 93036ACY 25350.96382806  .00002093  00000+0  52941-3 0  9993", "line2": "2 34885  74.0298 175.0683 0015114 260.4870 217.0768 14.51524925875402"}}, "geometry": {"type": "Point", "coordinates": [-49.02378155026826, 67.34322260971886]}}, {"type": "Feature", "properties": {"norad_id": 34886, "name": "COSMOS 2251 DEB", "group": "cosmos-2251-debris", "lat": -27.634907734792463, "lon": -0.3902615253988015, "alt_km": 470.46723120343995, "timestamp": "2025-12-17T09:00:17.543271+00:00", "meta": {"OBJECT_NAME": "COSMOS 2251 DEB", "OBJECT_ID": "1993-036ACZ", "EPOCH": "2025-12-13T21:25:05.379168", "MEAN_MOTION": 15.38859949, "ECCENTRICITY": 0.00306549, "INCLINATION": 73.9501, "RA_OF_ASC_NODE": 178.4925, "ARG_OF_PERICENTER": 1.8054, "MEAN_ANOMALY": 358.3257, "EPHEMERIS_TYPE": 0, "CLASSIFICATION_TYPE": "U", "NORAD_CAT_ID": 34886, "ELEMENT_SET_NO": 999, "REV_AT_EPOCH": 63016, "BSTAR": 0.0017695785, "MEAN_MOTION_DOT": 0.00069737, "MEAN_MOTION_DDOT": 0}, "tle": {"line1": "1 34886U 93036ACZ 25347.89242337  .00069737  00000+0  17696-2 0  9991", "line2": "2 34886  73.9501 178.4925 0030654   1.8054 358.3257 15.38859949630168"}}, "geometry": {"type": "Point", "coordinates": [-0.3902615253988015, -27.634907734792463]}}, {"type": "Feature", "properties": {"norad_id": 34907, "name": "COSMOS 2251 DEB", "group": "cosmos-2251-debris", "lat": -62.97360497281195, "lon": -107.42292604279412, "alt_km": 431.3664315624228, "timestamp": "2025-12-17T09:00:17.543281+00:00", "meta": {"OBJECT_NAME": "COSMOS 2251 DEB", "OBJECT_ID": "1993-036ADC", "EPOCH": "2025-12-15T03:08:27.494592", "MEAN_MOTION": 15.45801338, "ECCENTRICITY": 0.00202571, "INCLINATION": 73.97, "RA_OF_ASC_NODE": 43.1829, "ARG_OF_PERICENTER": 337.9656, "MEAN_ANOMALY": 22.0681, "EPHEMERIS_TYPE": 0, "CLASSIFICATION_TYPE": "U", "NORAD_CAT_ID": 34907, "ELEMENT_SET_NO": 999, "REV_AT_EPOCH": 88010, "BSTAR": 0.0046562373, "MEAN_MOTION_DOT": 0.00234249, "MEAN_MOTION_DDOT": 0}, "tle": {"line1": "1 34907U 93036ADC 25349.13087378  .00234249  00000+0  46562-2 0  9992", "line2": "2 34907  73.9700  43.1829 0020257 337.9656  22.0681 15.45801338880107"}}, "geometry": {"type": "Point", "coordinates": [-107.42292604279412, -62.97360497281195]}}, {"type": "Feature", "properties": {"norad_id": 34908, "name": "COSMOS 2251 DEB", "group": "cosmos-2251-debris", "lat": -63.13247128926798, "lon": -19.20743906817228, "alt_km": 777.7373441888367, "timestamp": "2025-12-17T09:00:17.543291+00:00", "meta": {"OBJECT_NAME": "COSMOS 2251 DEB", "OBJECT_ID": "1993-036ADD", "EPOCH": "2025-12-16T12:18:00.183168", "MEAN_MOTION": 14.3740915, "ECCENTRICITY": 0.00402094, "INCLINATION": 74.0582, "RA_OF_ASC_NODE": 16.7237, "ARG_OF_PERICENTER": 31.6478, "MEAN_ANOMALY": 118.3664, "EPHEMERIS_TYPE": 0, "CLASSIFICATION_TYPE": "U", "NORAD_CAT_ID": 34908, "ELEMENT_SET_NO": 999, "REV_AT_EPOCH": 87333, "BSTAR": 0.00046056248, "MEAN_MOTION_DOT": 1.364e-05, "MEAN_MOTION_DDOT": 0}, "tle": {"line1": "1 34908U 93036ADD 25350.51250212  .00001364  00000+0  46056-3 0  9995", "line2": "2 34908  74.0582  16.7237 0040209  31.6478 118.3664 14.37409150873339"}}, "geometry": {"type": "Point", "coordinates": [-19.20743906817228, -63.13247128926798]}}, {"type": "Feature", "properties": {"norad_id": 34909, "name": "COSMOS 2251 DEB", "group": "cosmos-2251-debris", "lat": 19.595920831744078, "lon": 73.31595401584262, "alt_km": 694.909193319666, "timestamp": "2025-12-17T09:00:17.543301+00:00", "meta": {"OBJECT_NAME": "COSMOS 2251 DEB", "OBJECT_ID": "1993-036ADE", "EPOCH": "2025-12-16T23:09:48.199680", "MEAN_MOTION": 14.77871618, "ECCENTRICITY": 0.00842379, "INCLINATION": 74.015, "RA_OF_ASC_NODE": 68.2645, "ARG_OF_PERICENTER": 203.1131, "MEAN_ANOMALY": 156.6247, "EPHEMERIS_TYPE": 0, "CLASSIFICATION_TYPE": "U", "NORAD_CAT_ID": 34909, "ELEMENT_SET_NO": 999, "REV_AT_EPOCH": 66914, "BSTAR": 0.0004301691, "MEAN_MOTION_DOT": 3.247e-05, "MEAN_MOTION_DDOT": 0}, "tle": {"line1": "1 34909U 93036ADE 25350.96514120  .00003247  00000+0  43017-3 0  9992", "line2": "2 34909  74.0150  68.2645 0084237 203.1131 156.6247 14.77871618669147"}}, "geometry": {"type": "Point", "coordinates": [73.31595401584262, 19.595920831744078]}}]}